{
  "type": "FeatureCollection",
  "features": [
    {
      "type": "Feature",
      "properties": {
        "norad_id": 37238,
        "name": "INTELSAT 17 (IS-17)",
        "group": "intelsat",
        "lat": -0.025508421121851206,
        "lon": -129.93894155314507,
        "alt_km": 35776.79699375677,
        "timestamp": "2025-12-09T05:43:20.395726+00:00",
        "meta_object_name": "INTELSAT 17 (IS-17)",
        "meta_object_id": "2010-065B",
        "meta_epoch": "2025-12-08T19:03:07.038144",
        "meta_mean_motion": 1.00272316,
        "meta_eccentricity": 0.0002456,
        "meta_inclination": 0.0167,
        "meta_ra_of_asc_node": 281.329,
        "meta_arg_of_pericenter": 337.4542,
        "meta_mean_anomaly": 170.8003,
        "meta_ephemeris_type": 0,
        "meta_classification_type": "U",
        "meta_norad_cat_id": 37238,
        "meta_element_set_no": 999,
        "meta_rev_at_epoch": 5133,
        "meta_bstar": 0,
        "meta_mean_motion_dot": 0,
        "meta_mean_motion_ddot": 0,
        "tle_line1": "1 37238U 10065B   25342.79383146  .00000000  00000+0  00000+0 0  9990",
        "tle_line2": "2 37238   0.0167 281.3290 0002456 337.4542 170.8003  1.00272316 51332"
      },
      "geometry": {
        "type": "Point",
        "coordinates": [
          -129.93894155314507,
          -0.025508421121851206
        ]
      }
    },
    {
      "type": "Feature",
      "properties": {
        "norad_id": 37392,
        "name": "INTELSAT 28 (IS-28)",
        "group": "intelsat",
        "lat": 0.9771545851117482,
        "lon": 132.321594690128,
        "alt_km": 35796.86554798203,
        "timestamp": "2025-12-09T05:43:20.395738+00:00",
        "meta_object_name": "INTELSAT 28 (IS-28)",
        "meta_object_id": "2011-016A",
        "meta_epoch": "2025-12-08T18:35:24.691776",
        "meta_mean_motion": 1.00272424,
        "meta_eccentricity": 0.0004006,
        "meta_inclination": 1.3143,
        "meta_ra_of_asc_node": 85.1028,
        "meta_arg_of_pericenter": 177.9136,
        "meta_mean_anomaly": 61.9095,
        "meta_ephemeris_type": 0,
        "meta_classification_type": "U",
        "meta_norad_cat_id": 37392,
        "meta_element_set_no": 999,
        "meta_rev_at_epoch": 5137,
        "meta_bstar": 0,
        "meta_mean_motion_dot": -2.23e-06,
        "meta_mean_motion_ddot": 0,
        "tle_line1": "1 37392U 11016A   25342.77459134 -.00000223  00000+0  00000+0 0  9995",
        "tle_line2": "2 37392   1.3143  85.1028 0004006 177.9136  61.9095  1.00272424 51374"
      },
      "geometry": {
        "type": "Point",
        "coordinates": [
          132.321594690128,
          0.9771545851117482
        ]
      }
    },
    {
      "type": "Feature",
      "properties": {
        "norad_id": 37834,
        "name": "INTELSAT 18 (IS-18)",
        "group": "intelsat",
        "lat": 0.0019158933345916368,
        "lon": -15.916170360037881,
        "alt_km": 35784.90250584535,
        "timestamp": "2025-12-09T05:43:20.395750+00:00",
        "meta_object_name": "INTELSAT 18 (IS-18)",
        "meta_object_id": "2011-056A",
        "meta_epoch": "2025-12-08T17:53:00.642912",
        "meta_mean_motion": 1.00271048,
        "meta_eccentricity": 0.0002091,
        "meta_inclination": 0.0172,
        "meta_ra_of_asc_node": 340.7761,
        "meta_arg_of_pericenter": 282.0836,
        "meta_mean_anomaly": 263.1367,
        "meta_ephemeris_type": 0,
        "meta_classification_type": "U",
        "meta_norad_cat_id": 37834,
        "meta_element_set_no": 999,
        "meta_rev_at_epoch": 5190,
        "meta_bstar": 0,
        "meta_mean_motion_dot": 5.5e-07,
        "meta_mean_motion_ddot": 0,
        "tle_line1": "1 37834U 11056A   25342.74514633  .00000055  00000+0  00000+0 0  9995",
        "tle_line2": "2 37834   0.0172 340.7761 0002091 282.0836 263.1367  1.00271048 51902"
      },
      "geometry": {
        "type": "Point",
        "coordinates": [
          -15.916170360037881,
          0.0019158933345916368
        ]
      }
    },
    {
      "type": "Feature",
      "properties": {
        "norad_id": 38098,
        "name": "INTELSAT 22 (IS-22)",
        "group": "intelsat",
        "lat": -0.03406167578703464,
        "lon": -123.83044815089055,
        "alt_km": 35780.039501432286,
        "timestamp": "2025-12-09T05:43:20.395763+00:00",
        "meta_object_name": "INTELSAT 22 (IS-22)",
        "meta_object_id": "2012-011A",
        "meta_epoch": "2025-12-08T19:04:59.359008",
        "meta_mean_motion": 1.00273289,
        "meta_eccentricity": 0.0001523,
        "meta_inclination": 0.018,
        "meta_ra_of_asc_node": 305.7155,
        "meta_arg_of_pericenter": 319.8627,
        "meta_mean_anomaly": 170.5766,
        "meta_ephemeris_type": 0,
        "meta_classification_type": "U",
        "meta_norad_cat_id": 38098,
        "meta_element_set_no": 999,
        "meta_rev_at_epoch": 527,
        "meta_bstar": 0,
        "meta_mean_motion_dot": -5.7e-07,
        "meta_mean_motion_ddot": 0,
        "tle_line1": "1 38098U 12011A   25342.79513147 -.00000057  00000+0  00000+0 0  9997",
        "tle_line2": "2 38098   0.0180 305.7155 0001523 319.8627 170.5766  1.00273289  5270"
      },
      "geometry": {
        "type": "Point",
        "coordinates": [
          -123.83044815089055,
          -0.03406167578703464
        ]
      }
    },
    {
      "type": "Feature",
      "properties": {
        "norad_id": 38356,
        "name": "INTELSAT 19 (IS-19)",
        "group": "intelsat",
        "lat": -0.0031141027454023645,
        "lon": -29.895338122973065,
        "alt_km": 35779.716444552476,
        "timestamp": "2025-12-09T05:43:20.395775+00:00",
        "meta_object_name": "INTELSAT 19 (IS-19)",
        "meta_object_id": "2012-030A",
        "meta_epoch": "2025-12-08T20:03:38.651328",
        "meta_mean_motion": 1.00271529,
        "meta_eccentricity": 0.0003554,
        "meta_inclination": 0.0098,
        "meta_ra_of_asc_node": 331.8017,
        "meta_arg_of_pericenter": 293.6359,
        "meta_mean_anomaly": 279.3134,
        "meta_ephemeris_type": 0,
        "meta_classification_type": "U",
        "meta_norad_cat_id": 38356,
        "meta_element_set_no": 999,
        "meta_rev_at_epoch": 4854,
        "meta_bstar": 0,
        "meta_mean_motion_dot": -5.4e-07,
        "meta_mean_motion_ddot": 0,
        "tle_line1": "1 38356U 12030A   25342.83586402 -.00000054  00000+0  00000+0 0  9991",
        "tle_line2": "2 38356   0.0098 331.8017 0003554 293.6359 279.3134  1.00271529 48548"
      },
      "geometry": {
        "type": "Point",
        "coordinates": [
          -29.895338122973065,
          -0.0031141027454023645
        ]
      }
    },
    {
      "type": "Feature",
      "properties": {
        "norad_id": 38740,
        "name": "INTELSAT 20 (IS-20)",
        "group": "intelsat",
        "lat": -0.0028686979343836797,
        "lon": -127.38981559328278,
        "alt_km": 35778.65600494475,
        "timestamp": "2025-12-09T05:43:20.395787+00:00",
        "meta_object_name": "INTELSAT 20 (IS-20)",
        "meta_object_id": "2012-043A",
        "meta_epoch": "2025-12-08T10:30:17.553024",
        "meta_mean_motion": 1.00273639,
        "meta_eccentricity": 0.0002741,
        "meta_inclination": 0.0021,
        "meta_ra_of_asc_node": 74.2164,
        "meta_arg_of_pericenter": 104.9934,
        "meta_mean_anomaly": 124.3222,
        "meta_ephemeris_type": 0,
        "meta_classification_type": "U",
        "meta_norad_cat_id": 38740,
        "meta_element_set_no": 999,
        "meta_rev_at_epoch": 4883,
        "meta_bstar": 0,
        "meta_mean_motion_dot": -2.3e-07,
        "meta_mean_motion_ddot": 0,
        "tle_line1": "1 38740U 12043A   25342.43770316 -.00000023  00000+0  00000+0 0  9993",
        "tle_line2": "2 38740   0.0021  74.2164 0002741 104.9934 124.3222  1.00273639 48835"
      },
      "geometry": {
        "type": "Point",
        "coordinates": [
          -127.38981559328278,
          -0.0028686979343836797
        ]
      }
    },
    {
      "type": "Feature",
      "properties": {
        "norad_id": 38749,
        "name": "INTELSAT 21 (IS-21)",
        "group": "intelsat",
        "lat": 0.03209660166344635,
        "lon": 106.05317926901664,
        "alt_km": 35794.34657201123,
        "timestamp": "2025-12-09T05:43:20.395799+00:00",
        "meta_object_name": "INTELSAT 21 (IS-21)",
        "meta_object_id": "2012-045A",
        "meta_epoch": "2025-12-08T18:27:55.410048",
        "meta_mean_motion": 1.00270578,
        "meta_eccentricity": 0.0002188,
        "meta_inclination": 0.0147,
        "meta_ra_of_asc_node": 13.438,
        "meta_arg_of_pericenter": 240.7747,
        "meta_mean_anomaly": 42.5431,
        "meta_ephemeris_type": 0,
        "meta_classification_type": "U",
        "meta_norad_cat_id": 38749,
        "meta_element_set_no": 999,
        "meta_rev_at_epoch": 4861,
        "meta_bstar": 0,
        "meta_mean_motion_dot": -2.83e-06,
        "meta_mean_motion_ddot": 0,
        "tle_line1": "1 38749U 12045A   25342.76939132 -.00000283  00000+0  00000+0 0  9991",
        "tle_line2": "2 38749   0.0147  13.4380 0002188 240.7747  42.5431  1.00270578 48612"
      },
      "geometry": {
        "type": "Point",
        "coordinates": [
          106.05317926901664,
          0.03209660166344635
        ]
      }
    }
  ]
}